{
  "type": "FeatureCollection",
  "features": [
    {
      "type": "Feature",
      "properties": {
        "norad_id": 31275,
        "name": "FENGYUN 1C DEB",
        "group": "fengyun-1c-debris",
        "lat": 52.340376199303584,
        "lon": 25.37276305995562,
        "alt_km": 867.6293189019243,
        "timestamp": "2025-12-19T22:41:52.674911+00:00",
        "meta_object_name": "FENGYUN 1C DEB",
        "meta_object_id": "1999-025BNH",
        "meta_epoch": "2025-12-19T01:53:58.693920",
        "meta_mean_motion": 14.0233843,
        "meta_eccentricity": 0.01036036,
        "meta_inclination": 98.9449,
        "meta_ra_of_asc_node": 36.2975,
        "meta_arg_of_pericenter": 335.2021,
        "meta_mean_anomaly": 24.4185,
        "meta_ephemeris_type": 0,
        "meta_classification_type": "U",
        "meta_norad_cat_id": 31275,
        "meta_element_set_no": 999,
        "meta_rev_at_epoch": 95575,
        "meta_bstar": 0.00070464929,
        "meta_mean_motion_dot": 1.089e-05,
        "meta_mean_motion_ddot": 0,
        "tle_line1": "1 31275U 99025BNH 25353.07915155  .00001089  00000+0  70465-3 0  9996",
        "tle_line2": "2 31275  98.9449  36.2975 0103603 335.2021  24.4185 14.02338430955757"
      },
      "geometry": {
        "type": "Point",
        "coordinates": [
          25.37276305995562,
          52.340376199303584
        ]
      }
    },
    {
      "type": "Feature",
      "properties": {
        "norad_id": 31279,
        "name": "FENGYUN 1C DEB",
        "group": "fengyun-1c-debris",
        "lat": 67.61392194902027,
        "lon": -156.63046359990915,
        "alt_km": 760.286743584581,
        "timestamp": "2025-12-19T22:41:52.674921+00:00",
        "meta_object_name": "FENGYUN 1C DEB",
        "meta_object_id": "1999-025BNM",
        "meta_epoch": "2025-12-17T06:12:05.995872",
        "meta_mean_motion": 14.26318274,
        "meta_eccentricity": 0.00738849,
        "meta_inclination": 98.5169,
        "meta_ra_of_asc_node": 359.4216,
        "meta_arg_of_pericenter": 164.4742,
        "meta_mean_anomaly": 195.8729,
        "meta_ephemeris_type": 0,
        "meta_classification_type": "U",
        "meta_norad_cat_id": 31279,
        "meta_element_set_no": 999,
        "meta_rev_at_epoch": 97293,
        "meta_bstar": 0.00041447371,
        "meta_mean_motion_dot": 9.82e-06,
        "meta_mean_motion_ddot": 0,
        "tle_line1": "1 31279U 99025BNM 25351.25840273  .00000982  00000+0  41447-3 0  9995",
        "tle_line2": "2 31279  98.5169 359.4216 0073884 164.4742 195.8729 14.26318274972939"
      },
      "geometry": {
        "type": "Point",
        "coordinates": [
          -156.63046359990915,
          67.61392194902027
        ]
      }
    },
    {
      "type": "Feature",
      "properties": {
        "norad_id": 31281,
        "name": "FENGYUN 1C DEB",
        "group": "fengyun-1c-debris",
        "lat": -73.34632190007555,
        "lon": -79.70215654803334,
        "alt_km": 596.8407595184153,
        "timestamp": "2025-12-19T22:41:52.674932+00:00",
        "meta_object_name": "FENGYUN 1C DEB",
        "meta_object_id": "1999-025BNP",
        "meta_epoch": "2025-12-19T15:15:02.777184",
        "meta_mean_motion": 15.17749214,
        "meta_eccentricity": 0.0112855,
        "meta_inclination": 98.3842,
        "meta_ra_of_asc_node": 129.4957,
        "meta_arg_of_pericenter": 68.2395,
        "meta_mean_anomaly": 293.0801,
        "meta_ephemeris_type": 0,
        "meta_classification_type": "U",
        "meta_norad_cat_id": 31281,
        "meta_element_set_no": 999,
        "meta_rev_at_epoch": 99836,
        "meta_bstar": 0.00075894,
        "meta_mean_motion_dot": 0.00018041,
        "meta_mean_motion_ddot": 0,
        "tle_line1": "1 31281U 99025BNP 25353.63544881  .00018041  00000+0  75894-3 0  9996",
        "tle_line2": "2 31281  98.3842 129.4957 0112855  68.2395 293.0801 15.17749214998362"
      },
      "geometry": {
        "type": "Point",
        "coordinates": [
          -79.70215654803334,
          -73.34632190007555
        ]
      }
    },
    {
      "type": "Feature",
      "properties": {
        "norad_id": 31282,
        "name": "FENGYUN 1C DEB",
        "group": "fengyun-1c-debris",
        "lat": 29.469592522183095,
        "lon": 97.07537743334662,
        "alt_km": 782.9542759782062,
        "timestamp": "2025-12-19T22:41:52.674942+00:00",
        "meta_object_name": "FENGYUN 1C DEB",
        "meta_object_id": "1999-025BNQ",
        "meta_epoch": "2025-12-18T14:23:03.262848",
        "meta_mean_motion": 14.43479308,
        "meta_eccentricity": 0.01268634,
        "meta_inclination": 99.2172,
        "meta_ra_of_asc_node": 270.3542,
        "meta_arg_of_pericenter": 269.0927,
        "meta_mean_anomaly": 89.5724,
        "meta_ephemeris_type": 0,
        "meta_classification_type": "U",
        "meta_norad_cat_id": 31282,
        "meta_element_set_no": 999,
        "meta_rev_at_epoch": 97205,
        "meta_bstar": 0.00017481612,
        "meta_mean_motion_dot": 5.93e-06,
        "meta_mean_motion_ddot": 0,
        "tle_line1": "1 31282U 99025BNQ 25352.59934332  .00000593  00000+0  17482-3 0  9997",
        "tle_line2": "2 31282  99.2172 270.3542 0126863 269.0927  89.5724 14.43479308972053"
      },
      "geometry": {
        "type": "Point",
        "coordinates": [
          97.07537743334662,
          29.469592522183095
        ]
      }
    },
    {
      "type": "Feature",
      "properties": {
        "norad_id": 31284,
        "name": "FENGYUN 1C DEB",
        "group": "fengyun-1c-debris",
        "lat": -27.46523706413117,
        "lon": 93.87657431566025,
        "alt_km": 865.1172867597306,
        "timestamp": "2025-12-19T22:41:52.674951+00:00",
        "meta_object_name": "FENGYUN 1C DEB",
        "meta_object_id": "1999-025BNS",
        "meta_epoch": "2025-12-18T12:28:25.995648",
        "meta_mean_motion": 13.97907737,
        "meta_eccentricity": 0.01425345,
        "meta_inclination": 99.7218,
        "meta_ra_of_asc_node": 87.2549,
        "meta_arg_of_pericenter": 43.1679,
        "meta_mean_anomaly": 318.0553,
        "meta_ephemeris_type": 0,
        "meta_classification_type": "U",
        "meta_norad_cat_id": 31284,
        "meta_element_set_no": 999,
        "meta_rev_at_epoch": 95243,
        "meta_bstar": 0.00037757635,
        "meta_mean_motion_dot": 5.35e-06,
        "meta_mean_motion_ddot": 0,
        "tle_line1": "1 31284U 99025BNS 25352.51974532  .00000535  00000+0  37758-3 0  9991",
        "tle_line2": "2 31284  99.7218  87.2549 0142534  43.1679 318.0553 13.97907737952431"
      },
      "geometry": {
        "type": "Point",
        "coordinates": [
          93.87657431566025,
          -27.46523706413117
        ]
      }
    },
    {
      "type": "Feature",
      "properties": {
        "norad_id": 31285,
        "name": "FENGYUN 1C DEB",
        "group": "fengyun-1c-debris",
        "lat": -31.2031010691716,
        "lon": -20.624492350229055,
        "alt_km": 948.0003144599268,
        "timestamp": "2025-12-19T22:41:52.674962+00:00",
        "meta_object_name": "FENGYUN 1C DEB",
        "meta_object_id": "1999-025BNT",
        "meta_epoch": "2025-12-19T10:05:45.519936",
        "meta_mean_motion": 14.26045486,
        "meta_eccentricity": 0.0200057,
        "meta_inclination": 98.5199,
        "meta_ra_of_asc_node": 333.6552,
        "meta_arg_of_pericenter": 167.2649,
        "meta_mean_anomaly": 346.4457,
        "meta_ephemeris_type": 0,
        "meta_classification_type": "U",
        "meta_norad_cat_id": 31285,
        "meta_element_set_no": 999,
        "meta_rev_at_epoch": 97394,
        "meta_bstar": 0.00011266,
        "meta_mean_motion_dot": 2.86e-06,
        "meta_mean_motion_ddot": 0,
        "tle_line1": "1 31285U 99025BNT 25353.42066574  .00000286  00000+0  11266-3 0  9990",
        "tle_line2": "2 31285  98.5199 333.6552 0200057 167.2649 346.4457 14.26045486973943"
      },
      "geometry": {
        "type": "Point",
        "coordinates": [
          -20.624492350229055,
          -31.2031010691716
        ]
      }
    },
    {
      "type": "Feature",
      "properties": {
        "norad_id": 31286,
        "name": "FENGYUN 1C DEB",
        "group": "fengyun-1c-debris",
        "lat": 10.725412874259511,
        "lon": -115.86012432618642,
        "alt_km": 837.0268895455556,
        "timestamp": "2025-12-19T22:41:52.674993+00:00",
        "meta_object_name": "FENGYUN 1C DEB",
        "meta_object_id": "1999-025BNU",
        "meta_epoch": "2025-12-16T10:15:45.270720",
        "meta_mean_motion": 14.22801772,
        "meta_eccentricity": 0.00798767,
        "meta_inclination": 100.8592,
        "meta_ra_of_asc_node": 241.8956,
        "meta_arg_of_pericenter": 269.7947,
        "meta_mean_anomaly": 89.407,
        "meta_ephemeris_type": 0,
        "meta_classification_type": "U",
        "meta_norad_cat_id": 31286,
        "meta_element_set_no": 999,
        "meta_rev_at_epoch": 64072,
        "meta_bstar": 0.0020801755,
        "meta_mean_motion_dot": 4.763e-05,
        "meta_mean_motion_ddot": 0,
        "tle_line1": "1 31286U 99025BNU 25350.42760730  .00004763  00000+0  20802-2 0  9992",
        "tle_line2": "2 31286 100.8592 241.8956 0079876 269.7947  89.4070 14.22801772640724"
      },
      "geometry": {
        "type": "Point",
        "coordinates": [
          -115.86012432618642,
          10.725412874259511
        ]
      }
    }
  ]
}